TRANSIT 16 [?]          
1 02807U 67048A   22228.05702747  .00000070  00000+0  92562-4 0  9994
2 02807  89.6542  34.4211 0021256  33.3165  92.9588 13.50320171719310
TRANSIT 17 [?]          
1 02965U 67092A   22227.72464332  .00000083  00000+0  10627-3 0  9991
2 02965  89.2389 118.8857 0047897 161.1053 218.4846 13.53032101706659
TRANSIT 18 [?]          
1 03133U 68012A   22228.16140675  .00000071  00000+0  91585-4 0  9992
2 03133  90.0035 271.6234 0077200  88.5407 330.0776 13.51158789681663
NNSS 19 [?]             
1 04507U 70067A   22227.74403421  .00000067  00000+0  81793-4 0  9990
2 04507  89.9199 238.8790 0171218 211.8533 147.2176 13.50834099558168
NNSS O-20 [?]           
1 06909U 73081A   22228.19608750  .00000107  00000+0  97262-4 0  9992
2 06909  89.8168 276.3274 0158509 117.7588 243.9749 13.70688994637483
TRANSAT [?]             
1 10457U 77106A   22228.26201153  .00000062  00000+0  83111-4 0  9999
2 10457  89.6815 120.6035 0027108  93.7577  22.0378 13.48683806203946
NOVA I [?]              
1 12458U 81044A   22228.21147111  .00000053  00000+0  10433-3 0  9992
2 12458  89.8862 107.0372 0013259 207.5506 271.3651 13.23068602991520
NOVA 3 [?]              
1 15362U 84110A   22228.53601097  .00000019  00000+0  23936-4 0  9994
2 15362  90.0946  67.5425 0033705  77.4168 310.9015 13.22836800826724
OSCAR 30 [?]            
1 15935U 85066A   22228.34916341  .00000049  00000+0  76779-4 0  9997
2 15935  90.1738  78.9579 0166979 269.5684 266.4184 13.35760698802465
OSCAR 24 [?]            
1 15936U 85066B   22227.79665794  .00000042  00000+0  64194-4 0  9990
2 15936  90.1690  70.9010 0167517 276.9147  92.2252 13.35621006804248
POLAR BEAR [?]          
1 17070U 86088A   22228.47558007  .00000055  00000+0  45609-4 0  9994
2 17070  89.5614 234.8508 0039042 179.3811 292.5720 13.74874708793193
OSCAR 27 [?]            
1 18361U 87080A   22228.49684059  .00000066  00000+0  93156-4 0  9992
2 18361  90.3300  36.2169 0106330 101.4227 259.8886 13.44569355712633
OSCAR 29 [?]            
1 18362U 87080B   22228.05378410  .00000095  00000+0  14253-3 0  9998
2 18362  90.3311  36.5355 0107737 122.7294   1.5858 13.44156694712165
OSCAR 23 [?]            
1 19070U 88033A   22228.39641802  .00000080  00000+0  14917-3 0  9990
2 19070  90.3360 338.6837 0188468 317.4252 109.1785 13.27525064661679
OSCAR 32 [?]            
1 19071U 88033B   22228.10248238  .00000085  00000+0  15871-3 0  9991
2 19071  90.3359 338.7608 0186527 306.0481 228.6781 13.27704984661883
NOVA 11 [?]             
1 19223U 88052A   22228.16517189  .00000030  00000+0  49363-4 0  9995
2 19223  89.9709  80.7278 0032121 119.1433 357.8883 13.22748329649174
OSCAR 25 [?]            
1 19419U 88074A   22228.50584700  .00000063  00000+0  90297-4 0  9995
2 19419  90.0062  17.9102 0098244 109.4598 321.5038 13.42300071663767
OSCAR 31 [?]            
1 19420U 88074B   22228.16781356  .00000072  00000+0  10633-3 0  9990
2 19420  90.0071  18.0920 0096455 104.6579  67.6642 13.42310416663827
